STARLINK-32850          
1 62950U 25029C   25236.93732172  .00021725  00000+0  74338-3 0  9996
2 62950  53.1582  66.3732 0001023  86.9132 273.1986 15.30204967 31209
STARLINK-32875          
1 62951U 25029D   25236.92623888  .00010195  00000+0  35583-3 0  9997
2 62951  53.1582  64.1763 0001237  92.5181 267.5961 15.30204259 31231
STARLINK-32865          
1 62952U 25029E   25236.80036689  .00018865  00000+0  64668-3 0  9990
2 62952  53.1602  66.9390 0001355  85.0861 275.0294 15.30237960 31186
STARLINK-32884          
1 62953U 25029F   25237.51090978  .00029508  00000+0  10045-2 0  9996
2 62953  53.1606  61.4262 0000913  68.0621 292.0477 15.30198352 31322
STARLINK-32874          
1 62954U 25029G   25237.49718232  .00019861  00000+0  68050-3 0  9995
2 62954  53.1600  61.3373 0001176  97.4453 262.6682 15.30218707 31328
STARLINK-32880          
1 62955U 25029H   25237.51779092  .00051592  00000+0  17420-2 0  9991
2 62955  53.1594  63.5964 0001295  70.4443 289.6698 15.30200229 31295
STARLINK-32815          
1 62956U 25029J   25237.50879872  .00024695  00000+0  84305-3 0  9999
2 62956  53.1596  61.4108 0001706  95.0365 265.0831 15.30202400 31322
STARLINK-32879          
1 62957U 25029K   25236.95420652  .00032378  00000+0  11004-2 0  9998
2 62957  53.1576  66.4777 0001135  90.9620 269.1511 15.30205155 31197
STARLINK-32885          
1 62958U 25029L   25237.50985196  .00020947  00000+0  71710-3 0  9990
2 62958  53.1608  61.4185 0001372  86.9255 273.1903 15.30211349 31310
STARLINK-32896          
1 62959U 25029M   25237.22812883  .00021865  00000+0  74811-3 0  9997
2 62959  53.1578  65.3408 0001025  86.5840 273.5278 15.30202226 31233
STARLINK-32877          
1 62960U 25029N   25237.22179772  .00015218  00000+0  52497-3 0  9993
2 62960  53.1582  65.3008 0001163  96.2410 263.8723 15.30193137 31215
STARLINK-32889          
1 62961U 25029P   25237.22496454  .00018873  00000+0  64775-3 0  9995
2 62961  53.1575  65.3255 0001114  99.3566 260.7561 15.30197344 31236
STARLINK-32858          
1 62962U 25029Q   25236.96992383  .00034261  00000+0  11635-2 0  9993
2 62962  53.1582  65.8665 0001147  89.8972 270.2160 15.30203097 31184
STARLINK-32882          
1 62963U 25029R   25237.51196503  .00025837  00000+0  88149-3 0  9990
2 62963  53.1598  61.4293 0001002  63.3383 296.7720 15.30197567 31318
STARLINK-32887          
1 62964U 25029S   25236.78822591  .00024386  00000+0  83243-3 0  9990
2 62964  53.1594  64.7355 0001516  78.2079 281.9091 15.30212644 31206
STARLINK-32836          
1 62965U 25029T   25237.50246650  .00024479  00000+0  83581-3 0  9996
2 62965  53.1607  61.3690 0001468  92.0329 268.0840 15.30203086 31315
