[{"OBJECT_NAME":"STARLINK-32850","OBJECT_ID":"2025-029C","EPOCH":"2025-08-24T22:29:44.596608","MEAN_MOTION":15.30204967,"ECCENTRICITY":0.00010231,"INCLINATION":53.1582,"RA_OF_ASC_NODE":66.3732,"ARG_OF_PERICENTER":86.9132,"MEAN_ANOMALY":273.1986,"EPHEMERIS_TYPE":0,"CLASSIFICATION_TYPE":"U","NORAD_CAT_ID":62950,"ELEMENT_SET_NO":999,"REV_AT_EPOCH":3120,"BSTAR":0.00074338365,"MEAN_MOTION_DOT":0.00021725,"MEAN_MOTION_DDOT":0},{"OBJECT_NAME":"STARLINK-32875","OBJECT_ID":"2025-029D","EPOCH":"2025-08-24T22:13:47.039232","MEAN_MOTION":15.30204259,"ECCENTRICITY":0.0001237,"INCLINATION":53.1582,"RA_OF_ASC_NODE":64.1763,"ARG_OF_PERICENTER":92.5181,"MEAN_ANOMALY":267.5961,"EPHEMERIS_TYPE":0,"CLASSIFICATION_TYPE":"U","NORAD_CAT_ID":62951,"ELEMENT_SET_NO":999,"REV_AT_EPOCH":3123,"BSTAR":0.00035583235,"MEAN_MOTION_DOT":0.00010195,"MEAN_MOTION_DDOT":0},{"OBJECT_NAME":"STARLINK-32865","OBJECT_ID":"2025-029E","EPOCH":"2025-08-24T19:12:31.699296","MEAN_MOTION":15.3023796,"ECCENTRICITY":0.00013558,"INCLINATION":53.1602,"RA_OF_ASC_NODE":66.939,"ARG_OF_PERICENTER":85.0861,"MEAN_ANOMALY":275.0294,"EPHEMERIS_TYPE":0,"CLASSIFICATION_TYPE":"U","NORAD_CAT_ID":62952,"ELEMENT_SET_NO":999,"REV_AT_EPOCH":3118,"BSTAR":0.00064667652,"MEAN_MOTION_DOT":0.00018865,"MEAN_MOTION_DDOT":0},{"OBJECT_NAME":"STARLINK-32884","OBJECT_ID":"2025-029F","EPOCH":"2025-08-25T12:15:42.604992","MEAN_MOTION":15.30198352,"ECCENTRICITY":9.133e-5,"INCLINATION":53.1606,"RA_OF_ASC_NODE":61.4262,"ARG_OF_PERICENTER":68.0621,"MEAN_ANOMALY":292.0477,"EPHEMERIS_TYPE":0,"CLASSIFICATION_TYPE":"U","NORAD_CAT_ID":62953,"ELEMENT_SET_NO":999,"REV_AT_EPOCH":3132,"BSTAR":0.0010045131,"MEAN_MOTION_DOT":0.00029508,"MEAN_MOTION_DDOT":0},{"OBJECT_NAME":"STARLINK-32874","OBJECT_ID":"2025-029G","EPOCH":"2025-08-25T11:55:56.552448","MEAN_MOTION":15.30218707,"ECCENTRICITY":0.0001176,"INCLINATION":53.16,"RA_OF_ASC_NODE":61.3373,"ARG_OF_PERICENTER":97.4453,"MEAN_ANOMALY":262.6682,"EPHEMERIS_TYPE":0,"CLASSIFICATION_TYPE":"U","NORAD_CAT_ID":62954,"ELEMENT_SET_NO":999,"REV_AT_EPOCH":3132,"BSTAR":0.00068049855,"MEAN_MOTION_DOT":0.00019861,"MEAN_MOTION_DDOT":0},{"OBJECT_NAME":"STARLINK-32880","OBJECT_ID":"2025-029H","EPOCH":"2025-08-25T12:25:37.135488","MEAN_MOTION":15.30200229,"ECCENTRICITY":0.00012954,"INCLINATION":53.1594,"RA_OF_ASC_NODE":63.5964,"ARG_OF_PERICENTER":70.4443,"MEAN_ANOMALY":289.6698,"EPHEMERIS_TYPE":0,"CLASSIFICATION_TYPE":"U","NORAD_CAT_ID":62955,"ELEMENT_SET_NO":999,"REV_AT_EPOCH":3129,"BSTAR":0.001741962,"MEAN_MOTION_DOT":0.00051592,"MEAN_MOTION_DDOT":0},{"OBJECT_NAME":"STARLINK-32815","OBJECT_ID":"2025-029J","EPOCH":"2025-08-25T12:12:40.209408","MEAN_MOTION":15.302024,"ECCENTRICITY":0.00017069,"INCLINATION":53.1596,"RA_OF_ASC_NODE":61.4108,"ARG_OF_PERICENTER":95.0365,"MEAN_ANOMALY":265.0831,"EPHEMERIS_TYPE":0,"CLASSIFICATION_TYPE":"U","NORAD_CAT_ID":62956,"ELEMENT_SET_NO":999,"REV_AT_EPOCH":3132,"BSTAR":0.0008430518,"MEAN_MOTION_DOT":0.00024695,"MEAN_MOTION_DDOT":0},{"OBJECT_NAME":"STARLINK-32879","OBJECT_ID":"2025-029K","EPOCH":"2025-08-24T22:54:03.443328","MEAN_MOTION":15.30205155,"ECCENTRICITY":0.00011356,"INCLINATION":53.1576,"RA_OF_ASC_NODE":66.4777,"ARG_OF_PERICENTER":90.962,"MEAN_ANOMALY":269.1511,"EPHEMERIS_TYPE":0,"CLASSIFICATION_TYPE":"U","NORAD_CAT_ID":62957,"ELEMENT_SET_NO":999,"REV_AT_EPOCH":3119,"BSTAR":0.0011003797,"MEAN_MOTION_DOT":0.00032378,"MEAN_MOTION_DDOT":0},{"OBJECT_NAME":"STARLINK-32885","OBJECT_ID":"2025-029L","EPOCH":"2025-08-25T12:14:11.209344","MEAN_MOTION":15.30211349,"ECCENTRICITY":0.0001372,"INCLINATION":53.1608,"RA_OF_ASC_NODE":61.4185,"ARG_OF_PERICENTER":86.9255,"MEAN_ANOMALY":273.1903,"EPHEMERIS_TYPE":0,"CLASSIFICATION_TYPE":"U","NORAD_CAT_ID":62958,"ELEMENT_SET_NO":999,"REV_AT_EPOCH":3131,"BSTAR":0.00071709874,"MEAN_MOTION_DOT":0.00020947,"MEAN_MOTION_DDOT":0},{"OBJECT_NAME":"STARLINK-32896","OBJECT_ID":"2025-029M","EPOCH":"2025-08-25T05:28:30.330912","MEAN_MOTION":15.30202226,"ECCENTRICITY":0.00010258,"INCLINATION":53.1578,"RA_OF_ASC_NODE":65.3408,"ARG_OF_PERICENTER":86.584,"MEAN_ANOMALY":273.5278,"EPHEMERIS_TYPE":0,"CLASSIFICATION_TYPE":"U","NORAD_CAT_ID":62959,"ELEMENT_SET_NO":999,"REV_AT_EPOCH":3123,"BSTAR":0.00074811477,"MEAN_MOTION_DOT":0.00021865,"MEAN_MOTION_DDOT":0},{"OBJECT_NAME":"STARLINK-32877","OBJECT_ID":"2025-029N","EPOCH":"2025-08-25T05:19:23.323008","MEAN_MOTION":15.30193137,"ECCENTRICITY":0.00011639,"INCLINATION":53.1582,"RA_OF_ASC_NODE":65.3008,"ARG_OF_PERICENTER":96.241,"MEAN_ANOMALY":263.8723,"EPHEMERIS_TYPE":0,"CLASSIFICATION_TYPE":"U","NORAD_CAT_ID":62960,"ELEMENT_SET_NO":999,"REV_AT_EPOCH":3121,"BSTAR":0.00052497402,"MEAN_MOTION_DOT":0.00015218,"MEAN_MOTION_DDOT":0},{"OBJECT_NAME":"STARLINK-32889","OBJECT_ID":"2025-029P","EPOCH":"2025-08-25T05:23:56.936256","MEAN_MOTION":15.30197344,"ECCENTRICITY":0.00011143,"INCLINATION":53.1575,"RA_OF_ASC_NODE":65.3255,"ARG_OF_PERICENTER":99.3566,"MEAN_ANOMALY":260.7561,"EPHEMERIS_TYPE":0,"CLASSIFICATION_TYPE":"U","NORAD_CAT_ID":62961,"ELEMENT_SET_NO":999,"REV_AT_EPOCH":3123,"BSTAR":0.00064775308,"MEAN_MOTION_DOT":0.00018873,"MEAN_MOTION_DDOT":0},{"OBJECT_NAME":"STARLINK-32858","OBJECT_ID":"2025-029Q","EPOCH":"2025-08-24T23:16:41.418912","MEAN_MOTION":15.30203097,"ECCENTRICITY":0.00011471,"INCLINATION":53.1582,"RA_OF_ASC_NODE":65.8665,"ARG_OF_PERICENTER":89.8972,"MEAN_ANOMALY":270.216,"EPHEMERIS_TYPE":0,"CLASSIFICATION_TYPE":"U","NORAD_CAT_ID":62962,"ELEMENT_SET_NO":999,"REV_AT_EPOCH":3118,"BSTAR":0.0011634625,"MEAN_MOTION_DOT":0.00034261,"MEAN_MOTION_DDOT":0},{"OBJECT_NAME":"STARLINK-32882","OBJECT_ID":"2025-029R","EPOCH":"2025-08-25T12:17:13.778592","MEAN_MOTION":15.30197567,"ECCENTRICITY":0.0001002,"INCLINATION":53.1598,"RA_OF_ASC_NODE":61.4293,"ARG_OF_PERICENTER":63.3383,"MEAN_ANOMALY":296.772,"EPHEMERIS_TYPE":0,"CLASSIFICATION_TYPE":"U","NORAD_CAT_ID":62963,"ELEMENT_SET_NO":999,"REV_AT_EPOCH":3131,"BSTAR":0.00088148854,"MEAN_MOTION_DOT":0.00025837,"MEAN_MOTION_DDOT":0},{"OBJECT_NAME":"STARLINK-32887","OBJECT_ID":"2025-029S","EPOCH":"2025-08-24T18:55:02.718624","MEAN_MOTION":15.30212644,"ECCENTRICITY":0.00015167,"INCLINATION":53.1594,"RA_OF_ASC_NODE":64.7355,"ARG_OF_PERICENTER":78.2079,"MEAN_ANOMALY":281.9091,"EPHEMERIS_TYPE":0,"CLASSIFICATION_TYPE":"U","NORAD_CAT_ID":62964,"ELEMENT_SET_NO":999,"REV_AT_EPOCH":3120,"BSTAR":0.00083242786,"MEAN_MOTION_DOT":0.00024386,"MEAN_MOTION_DDOT":0},{"OBJECT_NAME":"STARLINK-32836","OBJECT_ID":"2025-029T","EPOCH":"2025-08-25T12:03:33.105600","MEAN_MOTION":15.30203086,"ECCENTRICITY":0.0001468,"INCLINATION":53.1607,"RA_OF_ASC_NODE":61.369,"ARG_OF_PERICENTER":92.0329,"MEAN_ANOMALY":268.084,"EPHEMERIS_TYPE":0,"CLASSIFICATION_TYPE":"U","NORAD_CAT_ID":62965,"ELEMENT_SET_NO":999,"REV_AT_EPOCH":3131,"BSTAR":0.00083581216,"MEAN_MOTION_DOT":0.00024479,"MEAN_MOTION_DDOT":0}]
